#dP2018 12  5  0  0  0.00000000      96 __u+U IGS08 FIT  IAC
## 2030 259200.00000000   900.00000000 58457 0.0000000000000
+   93   C01C02C03C04C05C06C07C08C09C10C11C12C13C14E01E02E03
+        E04E05E07E08E09E11E12E14E18E19E21E24E25E26E27E30E31
+        E36G01G02G03G04G05G06G07G08G09G10G11G12G13G14G15G16
+        G17G18G19G20G21G22G23G24G25G26G27G28G29G30G31G32J01
+        J02J03R01R02R03R04R05R07R08R09R10R11R13R14R15R16R17
+        R18R19R20R21R22R23R24R26  0  0  0  0  0  0  0  0  0
++        12 11 12 12 12  8  7  8  8  7  8  7  8  8  5  7  5
++         5  5  6  6  5  7  6  6  5  5  5  5  5  5  5  5  5
++         6  6  3  3  7  3  3  6  3  6  3  3  6  3  3  3  3
++         3  3  3  3  3  3  3  3  6  6  3  3  6  3  3  6 10
++        11 11  5  5  5  5  5  5  5  5  5  7  5  5  5  5  5
++         5  6  5  5  5  5  5  8  0  0  0  0  0  0  0  0  0
%c M  cc GPS ccc cccc cccc cccc cccc ccccc ccccc ccccc ccccc
%c cc cc ccc ccc cccc cccc cccc cccc ccccc ccccc ccccc ccccc
%f  1.2500000  1.025000000  0.00000000000  0.000000000000000
%f  0.0000000  0.000000000  0.00000000000  0.000000000000000
%i    0    0    0    0      0      0      0      0         0
%i    0    0    0    0      0      0      0      0         0
/* INFORMATION & ANALYSIS CENTER (IAC)            FINAL DATA
/* S/V CLOCKS ARE ALIGNED TO GPS & GLONASS TIME RESPECTIVELY
/* USING THE BROADCAST EPHEMERIS                            
/* PCV:IGS14_2029 OL/AL:FES2004  NONE     YN ORB:CoN CLK:CoN
*  2018 12 05 18  0  0.00000000
PC01 -32258.997061  27119.120218   1028.035478    -26.848763
PC02   4325.369139  41967.902521   -246.292764   -149.352532
PC03 -14811.643089  39458.638826    547.540327   -239.800787
PC04 -39584.713918  14499.960189    601.254377   -263.395615
PC05  21882.705513  36029.071670   -502.001864     70.542545
PC06 -14139.460541  20477.129867 -33784.792903    120.533135
PC07 -24269.978873  32045.642826  12052.993451   -168.722194
PC08  -8284.710952  35991.421834  20683.748404     53.286876
PC09   3857.349024  27213.941170 -31697.528252    341.422964
PC10  -9316.784282  32719.337288  24834.532311   -296.216612
PC11   2884.609486 -18427.408603 -20674.568390    -73.822748
PC12  20483.077418   6825.686225 -17668.159219    255.771665
PC13    341.497483  41543.097361   8017.245763   -413.107513
PC14  21898.546375 -12257.659799  12200.710847    386.953070
PE01  10238.292141  12756.666989  24676.390815   -492.656377
PE02 -10277.093541 -12709.758951 -24671.474823     37.922505
PE03 -21727.769674 -14876.437796  13499.725098   -107.402048
PE04  29057.341345   3437.506722   4474.790481   -172.841446
PE05  -1629.770794 -17676.492644  23680.822586    147.675890
PE07 -19347.441749  10129.408628 -19977.189989    -88.133041
PE08 -29069.873255  -3154.636638  -4562.378708   6449.330149
PE09  19258.921758 -10169.544731  20051.806005   6597.342712
PE11  10195.585008 -16769.678491 -22161.142232   5714.090787
PE12  17799.535436   5085.398791 -23088.164649   5650.657260
PE14 -11262.608942   9943.782366  17986.245525   6479.327935
PE18  11982.696139 -16934.266261 -25130.498484   5704.772144
PE19  20198.633609  15486.509302 -15112.831001    -10.121758
PE21  -7950.552236  23809.736690  15689.293996   -507.900791
PE24  21034.961251 -20727.550451   1865.210460   6354.009339
PE25   7994.065280 -23815.269655 -15646.136044   1962.996921
PE26   3000.238019  28254.839836   8327.175593   5169.790478
PE27 -21157.441131  20556.263370  -2461.933384    576.438413
PE30 -22182.893641   5614.889496 -18784.466899   5294.192549
PE31  21948.967339  -5238.748900  19171.167485    966.203340
PE36  -3428.239292 -28227.136441  -8206.822999    272.133840
PG01 -13206.535148  14634.230722  17483.986336   -124.403038
PG02  14023.567726   9287.565415 -20019.550067    -77.605471
PG03 -22502.080784  13535.173246  -3770.895054    166.934752
PG04 -23099.531423 -13686.761338  -1158.931076    -83.828033
PG05  22550.790463    158.896497 -14308.805498      0.219378
PG06   7377.515941  21723.911467 -13332.407435    321.692791
PG07  -6209.175037  24961.119375  -5314.756172     75.995607
PG08 -22026.716126  -2613.233183  14786.752594   -124.559596
PG09  -4664.295798  15166.954366 -21345.598756    486.134511
PG10  -2691.710227 -15354.358800  21525.790267    155.652646
PG11 -13321.959067   9713.207439  20309.799576   -692.161509
PG12  24413.393677 -10193.282768   -763.499610    286.828068
PG13  22203.057049  10926.866083   9571.595879    -82.489059
PG14 -17821.271970 -19206.065976   5201.080645    -95.013623
PG15  21042.796950  -1897.345109  16074.425329   -337.362998
PG16 -22067.770201  -2425.966535 -15058.717700     -4.940945
PG17  10869.593713  20145.447120  13973.150476    -22.573446
PG18 -15069.926126   4304.455071  20949.137490      2.341070
PG19  17919.182180  18978.940120   4276.569783   -376.890101
PG20   6845.428192 -19144.069201  16904.608770    519.578047
PG21   1937.193222 -26410.548976  -1673.901176   -292.558992
PG22 -24329.089224   9741.745843   4412.619225   -591.306912
PG23 -14552.202197   8127.196867 -20455.338905   -204.369572
PG24  14703.777490  -9643.047729  19680.026693    -59.138717
PG25  17794.275336 -16452.962808 -10757.994637   -686.886626
PG26 -14761.378757  -8743.765175 -20321.995586     59.201402
PG27 -23451.994123 -11241.649279   5985.176312    -27.856052
PG28   -658.929582  15817.024235  21965.673846    757.351609
PG29   7585.364016 -12682.628633 -22088.389780    321.782137
PG30    774.785258  25857.744260   5624.687615    -15.207380
PG31  -8719.115722 -19465.530991 -15525.009025     74.910027
PG32 -13564.320685 -19499.026738  12024.768943   -330.640768
PJ01 -33557.046503  20302.140770 -10762.564111   -250.726626
PJ02 -24469.782164  32593.992556  -6252.379633     -0.838288
PJ03 -25808.494039  23261.826184  29070.118027      1.612868
PR01  25500.441360    658.510261   -602.596471     35.994463
PR02  16497.177998  -7910.264003  17778.424500    342.920465
PR03  -2005.092326 -11026.501793  22946.854501    150.782457
PR04 -19689.644668  -7443.996744  14427.286129    286.297043
PR05 -25462.488004    112.249111  -1699.699007     17.008195
PR07   2437.224167  10995.371218 -22858.733847    -53.085769
PR08  19154.395197   7706.446886 -14931.595639     20.141504
PR09 -14482.974615  20801.061568  -2537.543718     42.207365
PR10  -5998.241649  20885.608890  13279.081628     37.049272
PR11   7262.564420   8983.499017  22757.205517    -49.212692
PR13  14472.940132 -20707.853086   3517.684584    -17.612837
PR14   5783.477899 -21059.753085 -13172.114136     33.677668
PR15  -6506.041875  -9696.841799 -22652.178400     98.819129
PR16 -15144.104226   7393.599115 -19210.851003    108.073355
PR17  -6197.409878 -22239.734289 -10787.629720    185.489925
PR18 -14017.431770 -20435.533273   6177.587928     27.824136
PR19 -13932.024055  -7710.533918  19928.723766    -62.018355
PR20  -5518.778093  11252.481929  22219.861889   -361.364739
PR21   6555.787629  22390.140963  10356.030120    -18.266800
PR22  14418.027030  19172.443753  -8490.487349    -64.583856
PR23  12729.719912   2898.998286 -21918.461545    194.958948
PR24   4463.213783 -12608.040186 -21742.773946   -174.561132
PR26  -6393.571040   9834.050724  22668.983504      8.428846
EOF
